NORAD_CAT_ID,OBJECT_NAME,OBJECT_TYPE,EPOCH,MEAN_MOTION,ECCENTRICITY,INCLINATION,RA_OF_ASC_NODE,ARG_OF_PERICENTER,MEAN_ANOMALY,BSTAR,MEAN_MOTION_DOT,MEAN_MOTION_DDOT,TLE_LINE0,TLE_LINE1,TLE_LINE2,SEMIMAJOR_AXIS,PERIOD,APOGEE,PERIGEE,DECAYED
51114.0,STARLINK-3375,PAYLOAD,2024-05-19 21:11:01,15.08825598,0.0001371,53.2174,6.6185,76.82,283.2945,-0.00028785,-4.864e-05,0.0,0 STARLINK-3375,1 51114U 22005L   24140.88265737 -.00004864  00000-0 -28785-3 0  9995,2 51114  53.2174   6.6185 0001371  76.8200 283.2945 15.08825598130533,6917.924,95.438,540.738,538.841,0.0
51114.0,STARLINK-3375,PAYLOAD,2024-05-20 00:21:49,15.08789289,0.0001916,53.2172,6.0276,66.4913,293.6281,-0.001011,-0.0001632,0.0,0 STARLINK-3375,1 51114U 22005L   24141.01515503 -.00016320  00000-0 -10110-2 0  9992,2 51114  53.2172   6.0276 0001916  66.4913 293.6281 15.08789289130553,6918.035,95.441,541.226,538.575,0.0
51114.0,STARLINK-3375,PAYLOAD,2024-05-20 14:40:18,15.08810397,0.0002358,53.2177,3.3522,70.503,289.6216,-0.0001933,-3.361e-05,0.0,0 STARLINK-3375,1 51114U 22005L   24141.61132143 -.00003361  00000-0 -19330-3 0  9998,2 51114  53.2177   3.3522 0002358  70.5030 289.6216 15.08810397129533,6917.971,95.439,541.467,538.205,0.0
51114.0,STARLINK-3375,PAYLOAD,2024-05-20 21:01:50,15.0884506,0.0001875,53.2178,2.161,77.7336,282.3866,0.00073497,0.0001143,0.0,0 STARLINK-3375,1 51114U 22005L   24141.87627412  .00011430  00000-0  73497-3 0  9992,2 51114  53.2178   2.1610 0001875  77.7336 282.3866 15.08845060130684,6917.865,95.437,541.027,538.433,0.0
51114.0,STARLINK-3375,PAYLOAD,2024-05-21 01:47:58,15.08862597,0.0002043,53.2179,1.2621,109.5094,250.6119,0.0010943,0.00017182,0.0,0 STARLINK-3375,1 51114U 22005L   24142.07498771  .00017182  00000-0  10943-2 0  9995,2 51114  53.2179   1.2621 0002043 109.5094 250.6119 15.08862597130717,6917.811,95.436,541.09,538.263,0.0
51114.0,STARLINK-3375,PAYLOAD,2024-05-21 20:52:35,15.08838467,0.0001189,53.2168,357.7015,99.2493,260.8634,-0.00020564,-3.559e-05,0.0,0 STARLINK-3375,1 51114U 22005L   24142.86985469 -.00003559  00000-0 -20564-3 0  9993,2 51114  53.2168 357.7015 0001189  99.2493 260.8634 15.08838467130836,6917.885,95.438,540.573,538.928,0.0
51114.0,STARLINK-3375,PAYLOAD,2024-05-22 20:43:22,15.08832323,0.0001058,53.2164,353.2319,82.8338,277.2774,-0.00038082,-6.342e-05,0.0,0 STARLINK-3375,1 51114U 22005L   24143.86345626 -.00006342  00000-0 -38082-3 0  9996,2 51114  53.2164 353.2319 0001058  82.8338 277.2774 15.08832323129875,6917.904,95.438,540.501,539.037,0.0
51114.0,STARLINK-3375,PAYLOAD,2024-05-22 23:54:09,15.08829533,0.0001161,53.2171,352.6407,100.7593,259.353,-0.00031768,-5.339e-05,0.0,0 STARLINK-3375,1 51114U 22005L   24143.99593789 -.00005339  00000-0 -31768-3 0  9994,2 51114  53.2171 352.6407 0001161 100.7593 259.3530 15.08829533131000,6917.912,95.438,540.581,538.974,0.0
51114.0,STARLINK-3375,PAYLOAD,2024-05-23 18:58:47,15.08834353,0.0001048,53.2173,349.0759,98.4928,261.6183,0.00044607,6.817e-05,0.0,0 STARLINK-3375,1 51114U 22005L   24144.79082698  .00006817  00000-0  44607-3 0  9991,2 51114  53.2173 349.0759 0001048  98.4928 261.6183 15.08834353130017,6917.898,95.438,540.488,539.038,0.0
51114.0,STARLINK-3375,PAYLOAD,2024-05-24 14:03:24,15.08843862,9.98e-05,53.2171,345.5079,101.3869,258.7236,0.0003292,4.956e-05,0.0,0 STARLINK-3375,1 51114U 22005L   24145.58570554  .00004956  00000-0  32920-3 0  9999,2 51114  53.2171 345.5079 0000998 101.3869 258.7236 15.08843862130136,6917.869,95.437,540.424,539.043,0.0
51114.0,STARLINK-3375,PAYLOAD,2024-05-24 22:00:20,15.08841606,0.0001042,53.2171,344.0218,111.1255,248.9849,0.00020916,3.043e-05,0.0,0 STARLINK-3375,1 51114U 22005L   24145.91690557  .00003043  00000-0  20916-3 0  9990,2 51114  53.2171 344.0218 0001042 111.1255 248.9849 15.08841606130184,6917.875,95.437,540.461,539.02,0.0
51114.0,STARLINK-3375,PAYLOAD,2024-05-25 20:15:44,15.08842035,9.7e-05,53.2175,339.8616,104.3792,255.7308,-0.00019976,-3.466e-05,0.0,0 STARLINK-3375,1 51114U 22005L   24146.84426536 -.00003466  00000-0 -19976-3 0  9992,2 51114  53.2175 339.8616 0000970 104.3792 255.7308 15.08842035131433,6917.874,95.437,540.41,539.068,0.0
51114.0,STARLINK-3375,PAYLOAD,2024-05-26 05:48:03,15.08843653,2.86e-05,53.2167,338.0779,119.4834,240.6187,0.00010719,1.419e-05,0.0,0 STARLINK-3375,1 51114U 22005L   24147.24170385  .00001419  00000-0  10719-3 0  9995,2 51114  53.2167 338.0779 0000286 119.4834 240.6187 15.08843653130387,6917.869,95.437,539.932,539.536,0.0
51114.0,STARLINK-3375,PAYLOAD,2024-05-26 20:06:31,15.08845141,9.69e-05,53.2169,335.3993,102.123,257.987,0.00019339,2.792e-05,0.0,0 STARLINK-3375,1 51114U 22005L   24147.83786641  .00002792  00000-0  19339-3 0  9990,2 51114  53.2169 335.3993 0000969 102.1230 257.9870 15.08845141130478,6917.865,95.437,540.4,539.059,0.0
51114.0,STARLINK-3375,PAYLOAD,2024-05-27 19:57:18,15.0884194,0.0001195,53.2185,330.9361,73.3675,286.7448,0.00013453,1.854e-05,0.0,0 STARLINK-3375,1 51114U 22005L   24148.83146962  .00001854  00000-0  13453-3 0  9996,2 51114  53.2185 330.9361 0001195  73.3675 286.7448 15.08841940131734,6917.874,95.437,540.566,538.913,0.0
51114.0,STARLINK-3375,PAYLOAD,2024-05-27 21:32:42,15.08842396,0.0001167,53.2184,330.6391,75.5834,284.5287,0.00013719,1.896e-05,0.0,0 STARLINK-3375,1 51114U 22005L   24148.89770931  .00001896  00000-0  13719-3 0  9992,2 51114  53.2184 330.6391 0001167  75.5834 284.5287 15.08842396130634,6917.873,95.437,540.545,538.931,0.0
51114.0,STARLINK-3375,PAYLOAD,2024-05-28 11:51:10,15.08845639,0.0001159,53.2181,327.9648,77.1156,282.9965,0.00012201,1.655e-05,0.0,0 STARLINK-3375,1 51114U 22005L   24149.49386727  .00001655  00000-0  12201-3 0  9993,2 51114  53.2181 327.9648 0001159  77.1156 282.9965 15.08845639130729,6917.863,95.437,540.53,538.926,0.0
51114.0,STARLINK-3375,PAYLOAD,2024-05-28 18:12:42,15.0884527,0.000109,53.2188,326.7745,83.0944,277.0172,9.5124e-05,1.227e-05,0.0,0 STARLINK-3375,1 51114U 22005L   24149.75882687  .00001227  00000-0  95124-4 0  9999,2 51114  53.2188 326.7745 0001090  83.0944 277.0172 15.08845270130766,6917.864,95.437,540.483,538.975,0.0
51114.0,STARLINK-3375,PAYLOAD,2024-05-29 14:52:43,15.08842146,0.0001044,53.2186,322.9093,84.7205,275.3906,5.8677e-05,6.46e-06,0.0,0 STARLINK-3375,1 51114U 22005L   24150.61994874  .00000646  00000-0  58677-4 0  9994,2 51114  53.2186 322.9093 0001044  84.7205 275.3906 15.08842146130894,6917.874,95.437,540.461,539.017,0.0
51114.0,STARLINK-3375,PAYLOAD,2024-05-29 16:28:06,15.08841424,0.0001003,53.2184,322.6118,88.661,271.4498,4.2145e-05,3.83e-06,0.0,0 STARLINK-3375,1 51114U 22005L   24150.68618869  .00000383  00000-0  42145-4 0  9999,2 51114  53.2184 322.6118 0001003  88.6610 271.4498 15.08841424132012,6917.876,95.437,540.435,539.047,0.0
51114.0,STARLINK-3375,PAYLOAD,2024-05-29 21:14:16,15.08843142,0.0001009,53.2183,321.7196,89.1244,270.9864,5.5399e-05,5.94e-06,0.0,0 STARLINK-3375,1 51114U 22005L   24150.88490747  .00000594  00000-0  55399-4 0  9993,2 51114  53.2183 321.7196 0001009  89.1244 270.9864 15.08843142130931,6917.871,95.437,540.434,539.038,0.0
51114.0,STARLINK-3375,PAYLOAD,2024-05-30 14:43:30,15.0884178,0.000103,53.2181,318.4487,93.5933,266.5176,8.1451e-05,1.009e-05,0.0,0 STARLINK-3375,1 51114U 22005L   24151.61354743  .00001009  00000-0  81451-4 0  9990,2 51114  53.2181 318.4487 0001030  93.5933 266.5176 15.08841780131049,6917.875,95.437,540.452,539.027,0.0
51114.0,STARLINK-3375,PAYLOAD,2024-05-30 21:05:02,15.08845274,0.0001052,53.2183,317.2589,94.252,265.8592,9.9664e-05,1.299e-05,0.0,0 STARLINK-3375,1 51114U 22005L   24151.87850426  .00001299  00000-0  99664-4 0  9993,2 51114  53.2183 317.2589 0001052  94.2520 265.8592 15.08845274132198,6917.864,95.437,540.457,539.002,0.0
51114.0,STARLINK-3375,PAYLOAD,2024-05-31 14:34:17,15.08841795,0.0001071,53.2186,313.987,98.6198,261.4915,0.00010098,1.32e-05,0.0,0 STARLINK-3375,1 51114U 22005L   24152.60714582  .00001320  00000-0  10098-3 0  9995,2 51114  53.2186 313.9870 0001071  98.6198 261.4915 15.08841795131191,6917.875,95.437,540.481,538.999,0.0
51114.0,STARLINK-3375,PAYLOAD,2024-05-31 17:45:03,15.0884156,0.0001024,53.2184,313.3921,82.6248,277.4861,9.6653e-05,1.251e-05,0.0,0 STARLINK-3375,1 51114U 22005L   24152.73962654  .00001251  00000-0  96653-4 0  9999,2 51114  53.2184 313.3921 0001024  82.6248 277.4861 15.08841560132320,6917.876,95.437,540.449,539.032,0.0
51114.0,STARLINK-3375,PAYLOAD,2024-06-01 03:17:21,15.08849898,0.0001135,53.2194,311.6077,87.8065,272.3058,0.00014831,2.074e-05,0.0,0 STARLINK-3375,1 51114U 22005L   24153.13705834  .00002074  00000-0  14831-3 0  9990,2 51114  53.2194 311.6077 0001135  87.8065 272.3058 15.08849898132381,6917.85,95.437,540.5,538.93,0.0
51114.0,STARLINK-3375,PAYLOAD,2024-06-01 14:25:05,15.08831164,0.0001059,53.2181,309.5273,87.7644,272.347,-4.0729e-05,-9.36e-06,0.0,0 STARLINK-3375,1 51114U 22005L   24153.60075641 -.00000936  00000-0 -40729-4 0  9991,2 51114  53.2181 309.5273 0001059  87.7644 272.3470 15.08831164131348,6917.907,95.438,540.505,539.04,0.0
51114.0,STARLINK-3375,PAYLOAD,2024-06-01 20:46:37,15.08838458,0.0001107,53.2184,308.3388,93.6387,266.4732,1.7001e-05,-1.7e-07,0.0,0 STARLINK-3375,1 51114U 22005L   24153.86571074 -.00000017  00000-0  17001-4 0  9996,2 51114  53.2184 308.3388 0001107  93.6387 266.4732 15.08838458132494,6917.885,95.438,540.516,538.984,0.0
51114.0,STARLINK-3375,PAYLOAD,2024-06-02 03:08:09,15.08847474,0.0001288,53.2201,307.1504,84.6462,275.4677,6.4899e-05,7.45e-06,0.0,0 STARLINK-3375,1 51114U 22005L   24154.13066400  .00000745  00000-0  64899-4 0  9993,2 51114  53.2201 307.1504 0001288  84.6462 275.4677 15.08847474132536,6917.858,95.437,540.614,538.832,0.0
51114.0,STARLINK-3375,PAYLOAD,2024-06-02 19:02:02,15.08832424,0.0002209,53.2195,304.179,87.7618,272.3627,2.8696e-05,1.68e-06,0.0,0 STARLINK-3375,1 51114U 22005L   24154.79308086  .00000168  00000-0  28696-4 0  9998,2 51114  53.2195 304.1790 0002209  87.7618 272.3627 15.08832424132634,6917.904,95.438,541.297,538.24,0.0
